{"version": 0.6, "generator": "Overpass API 0.7.62.8 e802775f", "osm3s": {"timestamp_osm_base": "2025-08-16T11:03:29Z", "copyright": "The data included in this document is from www.openstreetmap.org. The data is made available under ODbL."}, "elements": [{"type": "node", "id": 2157345298, "lat": 40.107252, "lon": -3.3875665}, {"type": "node", "id": 2157345299, "lat": 40.1075174, "lon": -3.3875257}, {"type": "node", "id": 2157345301, "lat": 40.107527, "lon": -3.3876358}, {"type": "node", "id": 2157345303, "lat": 40.1072608, "lon": -3.3876761}, {"type": "node", "id": 2710518818, "lat": 40.2964322, "lon": -3.4317775, "tags": {"addr:housenumber": "1", "addr:street": "Calle Mar de Albor\u00e1n", "amenity": "library", "name": "Archivo de la Ciudad", "operator": "Ayuntamiento de Arganda del Rey"}}, {"type": "node", "id": 5345949864, "lat": 40.1696495, "lon": -3.2751272, "tags": {"amenity": "library", "name": "Biblioteca Municipal \"Jacinto Benavente\"", "wikidata": "Q85699178"}}, {"type": "node", "id": 6185791451, "lat": 40.2314918, "lon": -3.4403183, "tags": {"amenity": "library", "name": "Biblioteca Municipal Francisco Gonz\u00e1lez"}}, {"type": "node", "id": 7408961006, "lat": 40.1191401, "lon": -3.1570217, "tags": {"addr:unit": "2\u00aa planta", "amenity": "library", "email": "biblioteca@aytofuentiduenatajo.es", "name": "Biblioteca Municipal Luis Cubero", "opening_hours": "Mo-Th 10:00-13:00,16:00-20:00; Fr 16:00-20:00", "phone": "+34 918728434", "wikidata": "Q85696290"}}, {"type": "way", "id": 205757163, "nodes": [2157345301, 2157345299, 2157345298, 2157345303, 2157345301], "tags": {"addr:city": "Colmenar de Oreja", "addr:housenumber": "25", "addr:postcode": "28380", "addr:street": "Plaza Mayor", "amenity": "library", "building": "civic", "name": "Biblioteca Municipal Padre Rojas", "operator": "Ayuntamiento de Colmenar de Oreja", "phone": "+34 91 894 4160", "wikidata": "Q85696202"}}]}